NORAD_CAT_ID,OBJECT_NAME,OBJECT_TYPE,EPOCH,MEAN_MOTION,ECCENTRICITY,INCLINATION,RA_OF_ASC_NODE,ARG_OF_PERICENTER,MEAN_ANOMALY,BSTAR,MEAN_MOTION_DOT,MEAN_MOTION_DDOT,TLE_LINE0,TLE_LINE1,TLE_LINE2,SEMIMAJOR_AXIS,PERIOD,APOGEE,PERIGEE,DECAYED
55777.0,STARLINK-5814,PAYLOAD,2023-05-27 17:59:18,15.69926706,0.0003552,69.9978,276.2341,271.6797,88.3992,-1.5769e-06,-4.03e-06,0.0,0 STARLINK-5814,1 55777U 23028AN  23147.74951462 -.00000403  00000-0 -15769-5 0  9993,2 55777  69.9978 276.2341 0003552 271.6797  88.3992 15.69926706 14016,6737.244,91.724,361.502,356.716,0.0
55777.0,STARLINK-5814,PAYLOAD,2023-05-28 01:38:04,15.69915384,0.0003442,69.9984,275.3395,281.343,78.7378,1.2619e-05,1.304e-05,0.0,0 STARLINK-5814,1 55777U 23028AN  23148.06810272  .00001304  00000-0  12619-4 0  9991,2 55777  69.9984 275.3395 0003442 281.3430  78.7378 15.69915384 14068,6737.276,91.725,361.46,356.822,0.0
55777.0,STARLINK-5814,PAYLOAD,2023-05-28 18:27:19,15.699293,0.0003403,69.9986,273.3694,273.225,86.8556,6.2304e-06,5.37e-06,0.0,0 STARLINK-5814,1 55777U 23028AN  23148.76897925  .00000537  00000-0  62304-5 0  9992,2 55777  69.9986 273.3694 0003403 273.2250  86.8556 15.69929300 14170,6737.236,91.724,361.394,356.809,0.0
55777.0,STARLINK-5814,PAYLOAD,2023-05-29 09:44:52,15.699145,0.0003613,69.9991,271.5778,272.3877,87.6905,-8.4645e-06,-1.23e-05,0.0,0 STARLINK-5814,1 55777U 23028AN  23149.40615953 -.00001230  00000-0 -84645-5 0  9998,2 55777  69.9991 271.5778 0003613 272.3877  87.6905 15.69914500 14271,6737.279,91.725,361.578,356.709,0.0
55777.0,STARLINK-5814,PAYLOAD,2023-05-29 11:16:37,15.69916717,0.0003184,69.9992,271.3989,263.1172,96.9661,-8.7479e-06,-1.264e-05,0.0,0 STARLINK-5814,1 55777U 23028AN  23149.46987488 -.00001264  00000-0 -87479-5 0  9994,2 55777  69.9992 271.3989 0003184 263.1172  96.9661 15.69916717 14288,6737.272,91.725,361.282,356.992,0.0
55777.0,STARLINK-5814,PAYLOAD,2023-05-29 17:23:37,15.69921472,0.0003152,69.9992,270.6832,264.4396,95.644,-3.4136e-06,-6.23e-06,0.0,0 STARLINK-5814,1 55777U 23028AN  23149.72473817 -.00000623  00000-0 -34136-5 0  9999,2 55777  69.9992 270.6832 0003152 264.4396  95.6440 15.69921472 14324,6737.259,91.724,361.247,357.0,0.0
55777.0,STARLINK-5814,PAYLOAD,2023-05-30 11:44:38,15.69920513,0.0003545,69.999,268.5328,267.2121,92.8669,3.8877e-06,2.55e-06,0.0,0 STARLINK-5814,1 55777U 23028AN  23150.48933721  .00000255  00000-0  38877-5 0  9994,2 55777  69.9990 268.5328 0003545 267.2121  92.8669 15.69920513 14441,6737.261,91.724,361.515,356.738,0.0
55777.0,STARLINK-5814,PAYLOAD,2023-05-30 16:19:53,15.69922304,0.0003407,69.9994,267.9939,274.6239,85.4568,9.221e-06,8.96e-06,0.0,0 STARLINK-5814,1 55777U 23028AN  23150.68048560  .00000896  00000-0  92210-5 0  9996,2 55777  69.9994 267.9939 0003407 274.6239  85.4568 15.69922304 14474,6737.256,91.724,361.417,356.826,0.0
55777.0,STARLINK-5814,PAYLOAD,2023-05-31 01:30:25,15.69914244,0.0002766,69.9996,266.9191,268.6837,91.4041,3.3556e-06,1.91e-06,0.0,0 STARLINK-5814,1 55777U 23028AN  23151.06279366  .00000191  00000-0  33556-5 0  9995,2 55777  69.9996 266.9191 0002766 268.6837  91.4041 15.69914244 14533,6737.279,91.725,361.008,357.281,0.0
55777.0,STARLINK-5814,PAYLOAD,2023-05-31 10:40:55,15.69920344,0.0003006,69.9991,265.8466,266.4193,93.6659,1.037e-05,1.034e-05,0.0,0 STARLINK-5814,1 55777U 23028AN  23151.44508818  .00001034  00000-0  10370-4 0  9999,2 55777  69.9991 265.8466 0003006 266.4193  93.6659 15.69920344 14593,6737.262,91.724,361.152,357.102,0.0
55777.0,STARLINK-5814,PAYLOAD,2023-05-31 16:47:56,15.69919469,0.0003318,69.999,265.1297,270.363,89.7186,1.0643e-05,1.067e-05,0.0,0 STARLINK-5814,1 55777U 23028AN  23151.69995544  .00001067  00000-0  10643-4 0  9991,2 55777  69.9990 265.1297 0003318 270.3630  89.7186 15.69919469 14635,6737.264,91.724,361.365,356.894,0.0
55777.0,STARLINK-5814,PAYLOAD,2023-06-01 11:08:57,15.69921873,0.0003552,69.9985,262.9783,265.9799,94.0991,3.8853e-06,2.54e-06,0.0,0 STARLINK-5814,1 55777U 23028AN  23152.46455516  .00000254  00000-0  38853-5 0  9998,2 55777  69.9985 262.9783 0003552 265.9799  94.0991 15.69921873 14758,6737.258,91.724,361.516,356.729,0.0
55777.0,STARLINK-5814,PAYLOAD,2023-06-02 10:05:14,15.69923128,0.0003289,69.9988,260.2909,264.6496,95.4325,-3.5808e-06,-6.43e-06,0.0,0 STARLINK-5814,1 55777U 23028AN  23153.42030861 -.00000643  00000-0 -35808-5 0  9998,2 55777  69.9988 260.2909 0003289 264.6496  95.4325 15.69923128 14907,6737.254,91.724,361.335,356.903,0.0
55777.0,STARLINK-5814,PAYLOAD,2023-06-02 16:12:14,15.69928412,0.0003171,69.9988,259.5743,263.5752,96.5082,5.1918e-06,4.12e-06,0.0,0 STARLINK-5814,1 55777U 23028AN  23153.67517003  .00000412  00000-0  51918-5 0  9995,2 55777  69.9988 259.5743 0003171 263.5752  96.5082 15.69928412 14944,6737.239,91.724,361.24,356.967,0.0
55777.0,STARLINK-5814,PAYLOAD,2023-06-03 10:33:16,15.69919446,0.0003436,69.9994,257.4265,268.2456,91.8346,6.9657e-06,6.25e-06,0.0,0 STARLINK-5814,1 55777U 23028AN  23154.43977630  .00000625  00000-0  69657-5 0  9991,2 55777  69.9994 257.4265 0003436 268.2456  91.8346 15.69919446 15066,6737.264,91.724,361.444,356.815,0.0
55777.0,STARLINK-5814,PAYLOAD,2023-06-03 16:40:16,15.69927901,0.0003539,69.9987,256.7096,264.8114,95.2678,1.4484e-05,1.529e-05,0.0,0 STARLINK-5814,1 55777U 23028AN  23154.69463563  .00001529  00000-0  14484-4 0  9995,2 55777  69.9987 256.7096 0003539 264.8114  95.2678 15.69927901 15105,6737.24,91.724,361.49,356.721,0.0
55777.0,STARLINK-5814,PAYLOAD,2023-06-04 00:19:05,15.69895378,0.0002584,70.001,255.8166,285.2602,74.8308,-4.128e-05,-5.166e-05,0.0,0 STARLINK-5814,1 55777U 23028AN  23155.01325916 -.00005166  00000-0 -41280-4 0  9998,2 55777  70.0010 255.8166 0002584 285.2602  74.8308 15.69895378 15151,6737.333,91.726,360.939,357.457,0.0
55777.0,STARLINK-5814,PAYLOAD,2023-06-04 09:30:07,15.69469479,0.0005228,69.9991,254.7399,296.3768,63.689,-0.00049939,-0.00058762,0.0,0 STARLINK-5814,1 55777U 23028AN  23155.39591652 -.00058762  00000-0 -49939-3 0  9999,2 55777  69.9991 254.7399 0005228 296.3768  63.6890 15.69469479 15214,6738.552,91.751,363.94,356.894,0.0
55777.0,STARLINK-5814,PAYLOAD,2023-06-04 17:10:16,15.68528611,7.85e-05,69.9994,253.8499,312.4624,47.6505,-0.0015021,-0.00167309,0.0,0 STARLINK-5814,1 55777U 23028AN  23155.71546441 -.00167309  00000-0 -15021-2 0  9993,2 55777  69.9994 253.8499 0000785 312.4624  47.6505 15.68528611 15265,6741.247,91.806,363.641,362.582,0.0
55777.0,STARLINK-5814,PAYLOAD,2023-06-04 18:41:23,15.69028378,0.0003923,69.9976,253.6674,264.4865,95.5883,-0.00089619,-0.00102815,0.0,0 STARLINK-5814,1 55777U 23028AN  23155.77874025 -.00102815  00000-0 -89619-3 0  9997,2 55777  69.9976 253.6674 0003923 264.4865  95.5883 15.69028378 15276,6739.815,91.777,364.324,359.036,0.0
55777.0,STARLINK-5814,PAYLOAD,2023-06-05 06:00:00,15.67311302,0.0003405,70.0012,252.3445,270.1511,231.3565,-0.0095965,-0.00942702,0.0,0 STARLINK-5814,1 55777U 23028AN  23156.25001157 -.00942702  00000-0 -95965-2 0  9996,2 55777  70.0012 252.3445 0003405 270.1511 231.3565 15.67311302 15344,6744.737,91.877,368.898,364.305,0.0
55777.0,STARLINK-5814,PAYLOAD,2023-06-05 14:00:01,15.66598456,0.0003416,70.0008,251.4116,274.3419,307.0316,-0.008909,-0.00845571,0.0,0 STARLINK-5814,1 55777U 23028AN  23156.58335648 -.00845571  00000-0 -89090-2 0  9995,2 55777  70.0008 251.4116 0003416 274.3419 307.0316 15.66598456  1301,6746.783,91.919,370.952,366.343,0.0
55777.0,STARLINK-5814,PAYLOAD,2023-06-06 00:00:00,15.65786303,0.0003429,70.0004,250.2464,269.8415,140.0862,-0.0093093,-0.00854142,0.0,0 STARLINK-5814,1 55777U 23028AN  23157.00001157 -.00854142  00000-0 -93093-2 0  9990,2 55777  70.0004 250.2464 0003429 269.8415 140.0862 15.65786303  1309,6749.115,91.967,373.295,368.666,0.0
55777.0,STARLINK-5814,PAYLOAD,2023-06-06 14:00:01,15.64652772,0.0003284,70.0003,248.6181,274.5557,181.3814,-0.009794,-0.00870786,0.0,0 STARLINK-5814,1 55777U 23028AN  23157.58334491 -.00870786  00000-0 -97940-2 0  9990,2 55777  70.0003 248.6181 0003284 274.5557 181.3814 15.64652772 15552,6752.375,92.033,376.457,372.022,0.0
55777.0,STARLINK-5814,PAYLOAD,2023-06-06 20:00:01,15.64212714,0.0003331,69.9999,247.9209,274.7165,148.7646,-0.011064,-0.00957901,0.0,0 STARLINK-5814,1 55777U 23028AN  23157.83334491 -.00957901  00000-0 -11064-1 0  9995,2 55777  69.9999 247.9209 0003331 274.7165 148.7646 15.64212714  1302,6753.641,92.059,377.756,373.256,0.0
55777.0,STARLINK-5814,PAYLOAD,2023-06-07 06:00:00,15.63403579,0.0003303,70.0002,246.7605,266.1558,342.2718,-0.011349,-0.00952167,0.0,0 STARLINK-5814,1 55777U 23028AN  23158.25001157 -.00952167  00000-0 -11349-1 0  9997,2 55777  70.0002 246.7605 0003303 266.1558 342.2718 15.63403579 15651,6755.971,92.107,380.067,375.604,0.0
55777.0,STARLINK-5814,PAYLOAD,2023-06-07 14:00:01,15.62699803,0.0003393,69.9999,245.833,274.1006,49.4291,-0.010676,-0.00878088,0.0,0 STARLINK-5814,1 55777U 23028AN  23158.58334491 -.00878088  00000-0 -10676-1 0  9994,2 55777  69.9999 245.8330 0003393 274.1006  49.4291 15.62699803  1309,6757.999,92.148,382.157,377.571,0.0
55777.0,STARLINK-5814,PAYLOAD,2023-06-07 22:00:00,15.62059317,0.0003356,69.9994,244.9062,273.4173,124.4111,-0.011346,-0.00907319,0.0,0 STARLINK-5814,1 55777U 23028AN  23158.91667824 -.00907319  00000-0 -11346-1 0  9995,2 55777  69.9994 244.9062 0003356 273.4173 124.4111 15.62059317  1307,6759.846,92.186,383.98,379.443,0.0
55777.0,STARLINK-5814,PAYLOAD,2023-06-08 06:00:00,15.61441166,0.0003305,69.9997,243.9804,270.4444,200.8863,-0.012145,-0.00944411,0.0,0 STARLINK-5814,1 55777U 23028AN  23159.25001157 -.00944411  00000-0 -12145-1 0  9996,2 55777  69.9997 243.9804 0003305 270.4444 200.8863 15.61441166 15815,6761.63,92.222,385.73,381.261,0.0
55777.0,STARLINK-5814,PAYLOAD,2023-06-08 14:00:01,15.60740048,0.0003207,69.9996,243.0554,275.4377,268.6464,-0.011444,-0.00872637,0.0,0 STARLINK-5814,1 55777U 23028AN  23159.58334491 -.00872637  00000-0 -11444-1 0  9993,2 55777  69.9996 243.0554 0003207 275.4377 268.6464 15.60740048  1306,6763.655,92.264,387.689,383.351,0.0
